STARLINK-2187           
1 48562U 21041K   26068.45166755  .00003664  00000+0  13571-3 0  9992
2 48562  53.1596 127.8041 0001318  87.0026 273.1126 15.30210871265244
HAWK-11B                
1 62379U 24247C   26068.44730104  .00009093  00000+0  32842-3 0  9993
2 62379  45.0161 115.7610 0004690 333.0326  27.0314 15.28847070 67738
